ONEWEB-0528             
1 54643U 22166B   24044.56521449 -.00000016  00000+0 -69517-4 0  9999
2 54643  87.9209  54.0835 0002038  86.1486 273.9880 13.21824586 58640
ONEWEB-0539             
1 54644U 22166C   24044.52579033  .00000040  00000+0  64886-4 0  9997
2 54644  87.9211  54.0924 0001989  96.5488 263.5872 13.21824463 58633
ONEWEB-0540             
1 54645U 22166D   24044.52027880 -.00000116  00000+0 -31155-3 0  9994
2 54645  87.9205  54.1190 0002115  95.5594 264.5781 13.21825383 58623
ONEWEB-0542             
1 54646U 22166E   24044.53526228 -.00000137  00000+0 -36346-3 0  9996
2 54646  87.9209  54.0905 0001947 106.9764 253.1584 13.21825293 58635
ONEWEB-0545             
1 54647U 22166F   24044.57783064  .00000009  00000+0 -10360-4 0  9990
2 54647  87.9200  54.1153 0002265 101.5666 258.5722 13.21823916 58609
ONEWEB-0580             
1 54648U 22166G   24044.55102302  .00000039  00000+0  62626-4 0  9993
2 54648  87.9209  54.0797 0001898 108.5682 251.5658 13.21824825 58643
ONEWEB-0582             
1 54649U 22166H   24044.51791845 -.00000080  00000+0 -22484-3 0  9991
2 54649  87.9202  54.1284 0002256  91.3076 268.8316 13.21825431 58617
ONEWEB-0583             
1 54650U 22166J   24044.52894951  .00000034  00000+0  51157-4 0  9993
2 54650  87.9201  54.1279 0001905  78.2202 281.9146 13.21825087 58622
